NORAD_CAT_ID,OBJECT_NAME,OBJECT_TYPE,EPOCH,MEAN_MOTION,ECCENTRICITY,INCLINATION,RA_OF_ASC_NODE,ARG_OF_PERICENTER,MEAN_ANOMALY,BSTAR,MEAN_MOTION_DOT,MEAN_MOTION_DDOT,TLE_LINE0,TLE_LINE1,TLE_LINE2,SEMIMAJOR_AXIS,PERIOD,APOGEE,PERIGEE,DECAYED
52090.0,STARLINK-3712,PAYLOAD,2023-08-09 10:07:43,15.08841465,7.12e-05,53.2186,3.6089,103.5729,256.5343,-9.1728e-05,-1.747e-05,0.0,0 STARLINK-3712,1 52090U 22029C   23221.42203084 -.00001747  00000-0 -91728-4 0  9996,2 52090  53.2186   3.6089 0000712 103.5729 256.5343 15.08841465 78258,6917.876,95.437,540.233,539.248,0.0
52090.0,STARLINK-3712,PAYLOAD,2023-08-09 16:29:15,15.08851471,7.86e-05,53.2176,2.4223,88.9041,271.2041,0.00045754,7.004e-05,0.0,0 STARLINK-3712,1 52090U 22029C   23221.68698717  .00007004  00000-0  45754-3 0  9992,2 52090  53.2176   2.4223 0000786  88.9041 271.2041 15.08851471 78299,6917.845,95.437,540.254,539.167,0.0
52090.0,STARLINK-3712,PAYLOAD,2023-08-10 08:23:07,15.08845882,0.0001003,53.217,359.4491,94.2597,265.851,0.00065779,0.00010198,0.0,0 STARLINK-3712,1 52090U 22029C   23222.34938951  .00010198  00000-0  65779-3 0  9990,2 52090  53.2170 359.4491 0001003  94.2597 265.8510 15.08845882 78394,6917.862,95.437,540.421,539.034,0.0
52090.0,STARLINK-3712,PAYLOAD,2023-08-11 01:52:21,15.08839041,0.0001123,53.2171,356.1766,92.7055,267.4066,0.00035456,5.359e-05,0.0,0 STARLINK-3712,1 52090U 22029C   23223.07803215  .00005359  00000-0  35456-3 0  9997,2 52090  53.2171 356.1766 0001123  92.7055 267.4066 15.08839041 78506,6917.883,95.438,540.525,538.971,0.0
52090.0,STARLINK-3712,PAYLOAD,2023-08-12 08:04:41,15.0883701,0.0001271,53.2164,350.5268,69.6681,290.4448,0.00041267,6.285e-05,0.0,0 STARLINK-3712,1 52090U 22029C   23224.33659017  .00006285  00000-0  41267-3 0  9992,2 52090  53.2164 350.5268 0001271  69.6681 290.4448 15.08837010 78699,6917.89,95.438,540.634,538.875,0.0
52090.0,STARLINK-3712,PAYLOAD,2023-08-13 01:33:56,15.08835986,0.0001201,53.2166,347.2572,74.77,285.3424,0.00019354,2.793e-05,0.0,0 STARLINK-3712,1 52090U 22029C   23225.06523288  .00002793  00000-0  19354-3 0  9995,2 52090  53.2166 347.2572 0001201  74.7700 285.3424 15.08835986 78804,6917.893,95.438,540.588,538.927,0.0
52090.0,STARLINK-3712,PAYLOAD,2023-08-14 07:46:15,15.088427,0.0001358,53.2181,341.609,67.4056,292.708,0.0002606,3.862e-05,0.0,0 STARLINK-3712,1 52090U 22029C   23226.32379535  .00003862  00000-0  26060-3 0  9999,2 52090  53.2181 341.6090 0001358  67.4056 292.7080 15.08842700 78992,6917.872,95.437,540.677,538.798,0.0
52090.0,STARLINK-3712,PAYLOAD,2023-08-15 10:47:49,15.08842426,0.0001042,53.2182,336.5532,68.3748,291.7355,0.00013093,1.797e-05,0.0,0 STARLINK-3712,1 52090U 22029C   23227.44987369  .00001797  00000-0  13093-3 0  9990,2 52090  53.2182 336.5532 0001042  68.3748 291.7355 15.08842426 79164,6917.873,95.437,540.459,539.017,0.0
52090.0,STARLINK-3712,PAYLOAD,2023-08-15 18:44:44,15.08852239,0.0001265,53.2171,335.0653,74.9605,285.1527,0.00029396,4.395e-05,0.0,0 STARLINK-3712,1 52090U 22029C   23227.78106932  .00004395  00000-0  29396-3 0  9996,2 52090  53.2171 335.0653 0001265  74.9605 285.1527 15.08852239 79219,6917.843,95.437,540.583,538.833,0.0
52090.0,STARLINK-3712,PAYLOAD,2023-08-16 10:38:36,15.08843673,0.0001366,53.2186,332.0948,58.224,301.8885,0.00011491,1.542e-05,0.0,0 STARLINK-3712,1 52090U 22029C   23228.44347383  .00001542  00000-0  11491-3 0  9995,2 52090  53.2186 332.0948 0001366  58.2240 301.8885 15.08843673 79317,6917.869,95.437,540.679,538.789,0.0
52090.0,STARLINK-3712,PAYLOAD,2023-08-16 23:21:41,15.08835432,8.3e-05,53.218,329.7117,97.3834,262.7252,-8.0898e-05,-1.575e-05,0.0,0 STARLINK-3712,1 52090U 22029C   23228.97339152 -.00001575  00000-0 -80898-4 0  9994,2 52090  53.2180 329.7117 0000830  97.3834 262.7252 15.08835432 79395,6917.894,95.438,540.334,539.185,0.0
52090.0,STARLINK-3712,PAYLOAD,2023-08-17 10:29:22,15.08846525,9.91e-05,53.2168,327.6312,84.9859,275.1246,0.00024828,3.666e-05,0.0,0 STARLINK-3712,1 52090U 22029C   23229.43706973  .00003666  00000-0  24828-3 0  9996,2 52090  53.2168 327.6312 0000991  84.9859 275.1246 15.08846525 79466,6917.86,95.437,540.411,539.04,0.0
52090.0,STARLINK-3712,PAYLOAD,2023-08-17 23:12:28,15.08840039,0.0001345,53.2177,325.2574,103.5742,256.54,6.8477e-05,8.02e-06,0.0,0 STARLINK-3712,1 52090U 22029C   23229.96699198  .00000802  00000-0  68477-4 0  9992,2 52090  53.2177 325.2574 0001345 103.5742 256.5400 15.08840039 79541,6917.88,95.438,540.676,538.815,0.0
52090.0,STARLINK-3712,PAYLOAD,2023-08-19 10:10:57,15.08845157,0.000121,53.2178,318.7126,106.9495,253.1629,0.00035898,5.431e-05,0.0,0 STARLINK-3712,1 52090U 22029C   23231.42427387  .00005431  00000-0  35898-3 0  9998,2 52090  53.2178 318.7126 0001210 106.9495 253.1629 15.08845157 79761,6917.865,95.437,540.567,538.893,0.0
52090.0,STARLINK-3712,PAYLOAD,2023-08-20 10:01:44,15.0883434,9.07e-05,53.2162,314.2518,74.267,285.8422,2.2249e-05,6.6e-07,0.0,0 STARLINK-3712,1 52090U 22029C   23232.41787732  .00000066  00000-0  22249-4 0  9997,2 52090  53.2162 314.2518 0000907  74.2670 285.8422 15.08834340 79916,6917.898,95.438,540.39,539.135,0.0
52090.0,STARLINK-3712,PAYLOAD,2023-08-21 11:27:54,15.08847768,0.0001159,53.2162,309.4921,78.8472,281.2651,0.00063721,9.87e-05,0.0,0 STARLINK-3712,1 52090U 22029C   23233.47771801  .00009870  00000-0  63721-3 0  9995,2 52090  53.2162 309.4921 0001159  78.8472 281.2651 15.08847768 80071,6917.857,95.437,540.523,538.92,0.0
52090.0,STARLINK-3712,PAYLOAD,2023-08-22 04:57:09,15.08845958,0.0001091,53.216,306.221,92.1959,267.9158,0.00052883,8.14e-05,0.0,0 STARLINK-3712,1 52090U 22029C   23234.20636019  .00008140  00000-0  52883-3 0  9994,2 52090  53.2160 306.2210 0001091  92.1959 267.9158 15.08845958 80183,6917.862,95.437,540.482,538.972,0.0
52090.0,STARLINK-3712,PAYLOAD,2023-08-22 16:04:51,15.08845049,0.0001259,53.2158,304.1401,72.7044,287.4086,0.00026876,3.993e-05,0.0,0 STARLINK-3712,1 52090U 22029C   23234.67004079  .00003993  00000-0  26876-3 0  9994,2 52090  53.2158 304.1401 0001259  72.7044 287.4086 15.08845049 80250,6917.865,95.437,540.601,538.859,0.0
52090.0,STARLINK-3712,PAYLOAD,2023-08-24 14:11:02,15.08848518,0.0001212,53.2158,295.5155,88.6145,271.4986,0.00024329,3.587e-05,0.0,0 STARLINK-3712,1 52090U 22029C   23236.59099822  .00003587  00000-0  24329-3 0  9997,2 52090  53.2158 295.5155 0001212  88.6145 271.4986 15.08848518 80544,6917.854,95.437,540.558,538.881,0.0
52090.0,STARLINK-3712,PAYLOAD,2023-08-25 09:15:40,15.08836383,0.0001425,53.217,291.9491,88.8916,271.2239,-2.4953e-05,-6.85e-06,0.0,0 STARLINK-3712,1 52090U 22029C   23237.38588305 -.00000685  00000-0 -24953-4 0  9996,2 52090  53.2170 291.9491 0001425  88.8916 271.2239 15.08836383 80664,6917.891,95.438,540.742,538.771,0.0
52090.0,STARLINK-3712,PAYLOAD,2023-08-25 12:26:26,15.08841284,0.0001313,53.2164,291.3535,85.9051,274.2091,5.4429e-05,5.78e-06,0.0,0 STARLINK-3712,1 52090U 22029C   23237.51836208  .00000578  00000-0  54429-4 0  9999,2 52090  53.2164 291.3535 0001313  85.9051 274.2091 15.08841284 80681,6917.876,95.437,540.65,538.833,0.0
52090.0,STARLINK-3712,PAYLOAD,2023-08-26 10:41:51,15.08830931,0.0001383,53.2162,287.1904,85.0179,275.0971,-3.4042e-05,-8.3e-06,0.0,0 STARLINK-3712,1 52090U 22029C   23238.44573260 -.00000830  00000-0 -34042-4 0  9990,2 52090  53.2162 287.1904 0001383  85.0179 275.0971 15.08830931 80820,6917.908,95.438,540.73,538.816,0.0
52090.0,STARLINK-3712,PAYLOAD,2023-08-26 12:17:14,15.08832961,0.0001384,53.2161,286.8928,85.6545,274.4605,-1.9172e-06,-3.18e-06,0.0,0 STARLINK-3712,1 52090U 22029C   23238.51197183 -.00000318  00000-0 -19172-5 0  9993,2 52090  53.2161 286.8928 0001384  85.6545 274.4605 15.08832961 80838,6917.902,95.438,540.724,538.809,0.0
52090.0,STARLINK-3712,PAYLOAD,2023-08-27 08:57:14,15.088459,0.0001469,53.2164,283.027,93.2032,266.9128,0.00023099,3.391e-05,0.0,0 STARLINK-3712,1 52090U 22029C   23239.37308762  .00003391  00000-0  23099-3 0  9998,2 52090  53.2164 283.0270 0001469  93.2032 266.9128 15.08845900 80967,6917.862,95.437,540.744,538.711,0.0
52090.0,STARLINK-3712,PAYLOAD,2023-08-27 12:08:00,15.08849563,0.0001416,53.2159,282.4322,86.7695,273.3459,0.00027766,4.135e-05,0.0,0 STARLINK-3712,1 52090U 22029C   23239.50556584  .00004135  00000-0  27766-3 0  9992,2 52090  53.2159 282.4322 0001416  86.7695 273.3459 15.08849563 80986,6917.851,95.437,540.696,538.737,0.0
52090.0,STARLINK-3712,PAYLOAD,2023-08-28 02:26:29,15.08841893,0.0001443,53.2155,279.7561,84.0988,276.0168,0.00020728,3.013e-05,0.0,0 STARLINK-3712,1 52090U 22029C   23240.10172993  .00003013  00000-0  20728-3 0  9993,2 52090  53.2155 279.7561 0001443  84.0988 276.0168 15.08841893 81078,6917.875,95.437,540.738,538.741,0.0
52090.0,STARLINK-3712,PAYLOAD,2023-08-28 19:55:43,15.0884293,0.0001346,53.2146,276.4846,83.4467,276.6678,6.3289e-05,7.2e-06,0.0,0 STARLINK-3712,1 52090U 22029C   23240.83036767  .00000720  00000-0  63289-4 0  9993,2 52090  53.2146 276.4846 0001346  83.4467 276.6678 15.08842930 81182,6917.871,95.437,540.668,538.805,0.0
52090.0,STARLINK-3712,PAYLOAD,2023-08-29 08:38:48,15.08842191,0.0001378,53.2152,274.1051,87.9558,272.1592,-2.6377e-05,-7.08e-06,0.0,0 STARLINK-3712,1 52090U 22029C   23241.36028845 -.00000708  00000-0 -26377-4 0  9995,2 52090  53.2152 274.1051 0001378  87.9558 272.1592 15.08842191 81261,6917.874,95.437,540.692,538.785,0.0
52090.0,STARLINK-3712,PAYLOAD,2023-08-29 11:49:35,15.08844067,0.0001405,53.2152,273.5106,85.7449,274.3704,1.3111e-05,-7.9e-07,0.0,0 STARLINK-3712,1 52090U 22029C   23241.49276756 -.00000079  00000-0  13111-4 0  9997,2 52090  53.2152 273.5106 0001405  85.7449 274.3704 15.08844067 81286,6917.868,95.437,540.705,538.761,0.0
52090.0,STARLINK-3712,PAYLOAD,2023-08-30 13:15:44,15.08846738,0.0001444,53.2163,268.7513,93.0572,267.0585,7.7953e-05,9.53e-06,0.0,0 STARLINK-3712,1 52090U 22029C   23242.55260396  .00000953  00000-0  77953-4 0  9992,2 52090  53.2163 268.7513 0001444  93.0572 267.0585 15.08846738 81449,6917.86,95.437,540.724,538.726,0.0
